{
    "links": {
        "self": "http://www.neowsapp.com/rest/v1/neo/3831073?api_key=iIulBulltgU6a56xZRHN4H3l9WmuAYTsLGpBGhQ2"
    },
    "id": "3831073",
    "neo_reference_id": "3831073",
    "name": "(2018 SH3)",
    "designation": "2018 SH3",
    "nasa_jpl_url": "http://ssd.jpl.nasa.gov/sbdb.cgi?sstr=3831073",
    "absolute_magnitude_h": 25.3,
    "estimated_diameter": {
        "kilometers": {
            "estimated_diameter_min": 0.0231502122,
            "estimated_diameter_max": 0.0517654482
        },
        "meters": {
            "estimated_diameter_min": 23.150212221,
            "estimated_diameter_max": 51.7654482198
        },
        "miles": {
            "estimated_diameter_min": 0.0143848705,
            "estimated_diameter_max": 0.0321655483
        },
        "feet": {
            "estimated_diameter_min": 75.9521422633,
            "estimated_diameter_max": 169.8341531374
        }
    },
    "is_potentially_hazardous_asteroid": false,
    "close_approach_data": [
        {
            "close_approach_date": "2018-10-03",
            "close_approach_date_full": "2018-Oct-03 08:07",
            "epoch_date_close_approach": 1538554020000,
            "relative_velocity": {
                "kilometers_per_second": "13.9999439264",
                "kilometers_per_hour": "50399.7981350803",
                "miles_per_hour": "31316.4745689892"
            },
            "miss_distance": {
                "astronomical": "0.0635214006",
                "lunar": "24.7098248334",
                "kilometers": "9502666.229176722",
                "miles": "5904682.9910218836"
            },
            "orbiting_body": "Earth"
        },
        {
            "close_approach_date": "2019-01-31",
            "close_approach_date_full": "2019-Jan-31 01:58",
            "epoch_date_close_approach": 1548899880000,
            "relative_velocity": {
                "kilometers_per_second": "9.3402126612",
                "kilometers_per_hour": "33624.7655804814",
                "miles_per_hour": "20893.1217019385"
            },
            "miss_distance": {
                "astronomical": "0.4568979916",
                "lunar": "177.7333187324",
                "kilometers": "68350966.350637892",
                "miles": "42471321.0689592296"
            },
            "orbiting_body": "Earth"
        }
    ],
    "orbital_data": {
        "orbit_id": "1",
        "orbit_determination_date": "2018-10-03 03:42:34",
        "first_observation_date": "2018-09-30",
        "last_observation_date": "2018-10-02",
        "data_arc_in_days": 2,
        "observations_used": 18,
        "orbit_uncertainty": "9",
        "minimum_orbit_intersection": ".061998",
        "jupiter_tisserand_invariant": "4.176",
        "epoch_osculation": "2458392.5",
        "eccentricity": ".3994335101657704",
        "semi_major_axis": "1.609318777305667",
        "inclination": "22.37206972899117",
        "ascending_node_longitude": "5.059528052108211",
        "orbital_period": "745.6955385990913",
        "perihelion_distance": ".9665029291107783",
        "perihelion_argument": "49.5055097681732",
        "aphelion_distance": "2.252134625500555",
        "perihelion_time": "2458433.913163234367",
        "mean_anomaly": "340.0069358167536",
        "mean_motion": ".4827707574546011",
        "equinox": "J2000",
        "orbit_class": {
            "orbit_class_type": "APO",
            "orbit_class_description": "Near-Earth asteroid orbits which cross the Earth’s orbit similar to that of 1862 Apollo",
            "orbit_class_range": "a (semi-major axis) > 1.0 AU; q (perihelion) < 1.017 AU"
        }
    },
    "is_sentry_object": false
}